ACS3                    
1 59588U 24077B   24164.19955188  .00000069  00000+0  11482-3 0  9991
2 59588  97.4061 233.5384 0021611 107.6046 252.7467 13.67684594  6728
